{"type": "FeatureCollection", "features": [ {"type": "Feature", "properties": {"norad_id": 37595, "name": "FENGYUN 1C DEB", "group": "fengyun-1c-debris", "lat": 38.067595347940376, "lon": 40.032088682341914, "alt_km": 672.3352353882983, "timestamp": "2025-12-27T21:25:02.804150+00:00", "meta": {"OBJECT_NAME": "FENGYUN 1C DEB", "OBJECT_ID": "1999-025EKP", "EPOCH": "2025-12-27T09:56:34.053792", "MEAN_MOTION": 14.71778176, "ECCENTRICITY": 0.0028223, "INCLINATION": 99.0467, "RA_OF_ASC_NODE": 212.3328, "ARG_OF_PERICENTER": 322.3756, "MEAN_ANOMALY": 167.1404, "EPHEMERIS_TYPE": 0, "CLASSIFICATION_TYPE": "U", "NORAD_CAT_ID": 37595, "ELEMENT_SET_NO": 999, "REV_AT_EPOCH": 62821, "BSTAR": 0.004482, "MEAN_MOTION_DOT": 0.00028215, "MEAN_MOTION_DDOT": 0}, "tle": {"line1": "1 37595U 99025EKP 25361.41428303  .00028215  00000+0  44820-2 0  9993", "line2": "2 37595  99.0467 212.3328 0028223 322.3756 167.1404 14.71778176628213"}}, "geometry": {"type": "Point", "coordinates": [40.032088682341914, 38.067595347940376]}}, {"type": "Feature", "properties": {"norad_id": 37600, "name": "FENGYUN 1C DEB", "group": "fengyun-1c-debris", "lat": -36.217414963794695, "lon": -28.7624716925111, "alt_km": 1189.0032246242863, "timestamp": "2025-12-27T21:25:02.804160+00:00", "meta": {"OBJECT_NAME": "FENGYUN 1C DEB", "OBJECT_ID": "1999-025EKU", "EPOCH": "2025-12-26T04:25:23.697984", "MEAN_MOTION": 13.82661386, "ECCENTRICITY": 0.0356669, "INCLINATION": 98.9338, "RA_OF_ASC_NODE": 156.2285, "ARG_OF_PERICENTER": 13.0428, "MEAN_ANOMALY": 347.9661, "EPHEMERIS_TYPE": 0, "CLASSIFICATION_TYPE": "U", "NORAD_CAT_ID": 37600, "ELEMENT_SET_NO": 999, "REV_AT_EPOCH": 88673, "BSTAR": 0.0025662, "MEAN_MOTION_DOT": 4.504e-05, "MEAN_MOTION_DDOT": 0}, "tle": {"line1": "1 37600U 99025EKU 25360.18430206  .00004504  00000+0  25662-2 0  9996", "line2": "2 37600  98.9338 156.2285 0356669  13.0428 347.9661 13.82661386886732"}}, "geometry": {"type": "Point", "coordinates": [-28.7624716925111, -36.217414963794695]}}, {"type": "Feature", "properties": {"norad_id": 37683, "name": "FENGYUN 1C DEB", "group": "fengyun-1c-debris", "lat": -55.66390157473828, "lon": -69.68138681392323, "alt_km": 1487.5569816374345, "timestamp": "2025-12-27T21:25:02.804171+00:00", "meta": {"OBJECT_NAME": "FENGYUN 1C DEB", "OBJECT_ID": "1999-025EKY", "EPOCH": "2025-12-22T12:45:28.700352", "MEAN_MOTION": 13.31943553, "ECCENTRICITY": 0.05857029, "INCLINATION": 98.0031, "RA_OF_ASC_NODE": 274.2271, "ARG_OF_PERICENTER": 100.084, "MEAN_ANOMALY": 76.0427, "EPHEMERIS_TYPE": 0, "CLASSIFICATION_TYPE": "U", "NORAD_CAT_ID": 37683, "ELEMENT_SET_NO": 999, "REV_AT_EPOCH": 29370, "BSTAR": 0.0017018804, "MEAN_MOTION_DOT": 2.128e-05, "MEAN_MOTION_DDOT": 0}, "tle": {"line1": "1 37683U 99025EKY 25356.53158218  .00002128  00000+0  17019-2 0  9998", "line2": "2 37683  98.0031 274.2271 0585702 100.0840  76.0427 13.31943553293709"}}, "geometry": {"type": "Point", "coordinates": [-69.68138681392323, -55.66390157473828]}}, {"type": "Feature", "properties": {"norad_id": 37686, "name": "FENGYUN 1C DEB", "group": "fengyun-1c-debris", "lat": 22.54758888738711, "lon": -157.62752061731075, "alt_km": 1386.6639898058675, "timestamp": "2025-12-27T21:25:02.804181+00:00", "meta": {"OBJECT_NAME": "FENGYUN 1C DEB", "OBJECT_ID": "1999-025ELB", "EPOCH": "2025-12-15T20:02:19.291200", "MEAN_MOTION": 13.35366399, "ECCENTRICITY": 0.03959537, "INCLINATION": 99.0216, "RA_OF_ASC_NODE": 7.9106, "ARG_OF_PERICENTER": 34.5937, "MEAN_ANOMALY": 145.9696, "EPHEMERIS_TYPE": 0, "CLASSIFICATION_TYPE": "U", "NORAD_CAT_ID": 37686, "ELEMENT_SET_NO": 999, "REV_AT_EPOCH": 60668, "BSTAR": 0.00056833835, "MEAN_MOTION_DOT": 4.14e-06, "MEAN_MOTION_DDOT": 0}, "tle": {"line1": "1 37686U 99025ELB 25349.83494550  .00000414  00000+0  56834-3 0  9993", "line2": "2 37686  99.0216   7.9106 0395953  34.5937 145.9696 13.35366399606681"}}, "geometry": {"type": "Point", "coordinates": [-157.62752061731075, 22.54758888738711]}}, {"type": "Feature", "properties": {"norad_id": 37687, "name": "FENGYUN 1C DEB", "group": "fengyun-1c-debris", "lat": 52.79130247296863, "lon": 24.21440187351849, "alt_km": 960.8268759334296, "timestamp": "2025-12-27T21:25:02.804192+00:00", "meta": {"OBJECT_NAME": "FENGYUN 1C DEB", "OBJECT_ID": "1999-025ELC", "EPOCH": "2025-12-24T08:18:17.269344", "MEAN_MOTION": 13.85435781, "ECCENTRICITY": 0.03336335, "INCLINATION": 98.2045, "RA_OF_ASC_NODE": 32.0557, "ARG_OF_PERICENTER": 326.5456, "MEAN_ANOMALY": 45.1288, "EPHEMERIS_TYPE": 0, "CLASSIFICATION_TYPE": "U", "NORAD_CAT_ID": 37687, "ELEMENT_SET_NO": 999, "REV_AT_EPOCH": 83415, "BSTAR": 0.0031735951, "MEAN_MOTION_DOT": 5.552e-05, "MEAN_MOTION_DDOT": 0}, "tle": {"line1": "1 37687U 99025ELC 25358.34603321  .00005552  00000+0  31736-2 0  9999", "line2": "2 37687  98.2045  32.0557 0333633 326.5456  45.1288 13.85435781834159"}}, "geometry": {"type": "Point", "coordinates": [24.21440187351849, 52.79130247296863]}}, {"type": "Feature", "properties": {"norad_id": 37689, "name": "FENGYUN 1C DEB", "group": "fengyun-1c-debris", "lat": -67.28118811627033, "lon": 65.6910118543789, "alt_km": 737.5911614755123, "timestamp": "2025-12-27T21:25:02.804203+00:00", "meta": {"OBJECT_NAME": "FENGYUN 1C DEB", "OBJECT_ID": "1999-025ELE", "EPOCH": "2025-12-26T14:14:44.689920", "MEAN_MOTION": 14.48876004, "ECCENTRICITY": 0.002139, "INCLINATION": 98.9193, "RA_OF_ASC_NODE": 42.2903, "ARG_OF_PERICENTER": 200.5386, "MEAN_ANOMALY": 159.4948, "EPHEMERIS_TYPE": 0, "CLASSIFICATION_TYPE": "U", "NORAD_CAT_ID": 37689, "ELEMENT_SET_NO": 999, "REV_AT_EPOCH": 58013, "BSTAR": 0.0023871, "MEAN_MOTION_DOT": 9.016e-05, "MEAN_MOTION_DDOT": 0}, "tle": {"line1": "1 37689U 99025ELE 25360.59357280  .00009016  00000+0  23871-2 0  9991", "line2": "2 37689  98.9193  42.2903 0021390 200.5386 159.4948 14.48876004580132"}}, "geometry": {"type": "Point", "coordinates": [65.6910118543789, -67.28118811627033]}}, {"type": "Feature", "properties": {"norad_id": 37691, "name": "FENGYUN 1C DEB", "group": "fengyun-1c-debris", "lat": 21.749075696530767, "lon": 89.06012113282095, "alt_km": 581.2215953090226, "timestamp": "2025-12-27T21:25:02.804213+00:00", "meta": {"OBJECT_NAME": "FENGYUN 1C DEB", "OBJECT_ID": "1999-025ELG", "EPOCH": "2025-12-26T11:46:47.323200", "MEAN_MOTION": 14.5796237, "ECCENTRICITY": 0.0280298, "INCLINATION": 98.3718, "RA_OF_ASC_NODE": 264.2797, "ARG_OF_PERICENTER": 107.5128, "MEAN_ANOMALY": 255.6908, "EPHEMERIS_TYPE": 0, "CLASSIFICATION_TYPE": "U", "NORAD_CAT_ID": 37691, "ELEMENT_SET_NO": 999, "REV_AT_EPOCH": 85834, "BSTAR": 0.0015077, "MEAN_MOTION_DOT": 0.00011909, "MEAN_MOTION_DDOT": 0}, "tle": {"line1": "1 37691U 99025ELG 25360.49082550  .00011909  00000+0  15077-2 0  9991", "line2": "2 37691  98.3718 264.2797 0280298 107.5128 255.6908 14.57962370858341"}}, "geometry": {"type": "Point", "coordinates": [89.06012113282095, 21.749075696530767]}}, {"type": "Feature", "properties": {"norad_id": 37693, "name": "FENGYUN 1C DEB", "group": "fengyun-1c-debris", "lat": 56.487551266888055, "lon": -12.219808714595285, "alt_km": 811.6316805266015, "timestamp": "2025-12-27T21:25:02.804224+00:00", "meta": {"OBJECT_NAME": "FENGYUN 1C DEB", "OBJECT_ID": "1999-025ELJ", "EPOCH": "2025-12-24T12:01:58.795680", "MEAN_MOTION": 14.08514338, "ECCENTRICITY": 0.00721892, "INCLINATION": 98.6932, "RA_OF_ASC_NODE": 357.8702, "ARG_OF_PERICENTER": 41.8803, "MEAN_ANOMALY": 110.2059, "EPHEMERIS_TYPE": 0, "CLASSIFICATION_TYPE": "U", "NORAD_CAT_ID": 37693, "ELEMENT_SET_NO": 999, "REV_AT_EPOCH": 62314, "BSTAR": 0.00060814619, "MEAN_MOTION_DOT": 1.027e-05, "MEAN_MOTION_DDOT": 0}, "tle": {"line1": "1 37693U 99025ELJ 25358.50137495  .00001027  00000+0  60815-3 0  9992", "line2": "2 37693  98.6932 357.8702 0072189  41.8803 110.2059 14.08514338623141"}}, "geometry": {"type": "Point", "coordinates": [-12.219808714595285, 56.487551266888055]}}, {"type": "Feature", "properties": {"norad_id": 37694, "name": "FENGYUN 1C DEB", "group": "fengyun-1c-debris", "lat": -53.22635602354822, "lon": -122.79837884574285, "alt_km": 949.0728116376849, "timestamp": "2025-12-27T21:25:02.804234+00:00", "meta": {"OBJECT_NAME": "FENGYUN 1C DEB", "OBJECT_ID": "1999-025ELK", "EPOCH": "2025-12-14T10:20:27.757248", "MEAN_MOTION": 14.16668534, "ECCENTRICITY": 0.01472645, "INCLINATION": 98.1988, "RA_OF_ASC_NODE": 55.9107, "ARG_OF_PERICENTER": 88.6122, "MEAN_ANOMALY": 288.1431, "EPHEMERIS_TYPE": 0, "CLASSIFICATION_TYPE": "U", "NORAD_CAT_ID": 37694, "ELEMENT_SET_NO": 999, "REV_AT_EPOCH": 51728, "BSTAR": 0.0018272074, "MEAN_MOTION_DOT": 4.021e-05, "MEAN_MOTION_DDOT": 0}, "tle": {"line1": "1 37694U 99025ELK 25348.43087682  .00004021  00000+0  18272-2 0  9992", "line2": "2 37694  98.1988  55.9107 0147264  88.6122 288.1431 14.16668534517286"}}, "geometry": {"type": "Point", "coordinates": [-122.79837884574285, -53.22635602354822]}}, {"type": "Feature", "properties": {"norad_id": 37695, "name": "FENGYUN 1C DEB", "group": "fengyun-1c-debris", "lat": -14.831928497054626, "lon": -139.24931454312545, "alt_km": 708.4745971278653, "timestamp": "2025-12-27T21:25:02.804245+00:00", "meta": {"OBJECT_NAME": "FENGYUN 1C DEB", "OBJECT_ID": "1999-025ELL", "EPOCH": "2025-12-15T20:50:38.916672", "MEAN_MOTION": 13.64992638, "ECCENTRICITY": 0.04654766, "INCLINATION": 98.2113, "RA_OF_ASC_NODE": 32.72, "ARG_OF_PERICENTER": 252.5094, "MEAN_ANOMALY": 291.0319, "EPHEMERIS_TYPE": 0, "CLASSIFICATION_TYPE": "U", "NORAD_CAT_ID": 37695, "ELEMENT_SET_NO": 999, "REV_AT_EPOCH": 89294, "BSTAR": 0.00074996206, "MEAN_MOTION_DOT": 1.237e-05, "MEAN_MOTION_DDOT": 0}, "tle": {"line1": "1 37695U 99025ELL 25349.86850598  .00001237  00000+0  74996-3 0  9997", "line2": "2 37695  98.2113  32.7200 0465476 252.5094 291.0319 13.64992638892947"}}, "geometry": {"type": "Point", "coordinates": [-139.24931454312545, -14.831928497054626]}}]}